NORAD_CAT_ID,OBJECT_NAME,OBJECT_TYPE,EPOCH,MEAN_MOTION,ECCENTRICITY,INCLINATION,RA_OF_ASC_NODE,ARG_OF_PERICENTER,MEAN_ANOMALY,BSTAR,MEAN_MOTION_DOT,MEAN_MOTION_DDOT,TLE_LINE0,TLE_LINE1,TLE_LINE2,SEMIMAJOR_AXIS,PERIOD,APOGEE,PERIGEE,DECAYED
52624.0,STARLINK-4009,PAYLOAD,2024-03-01 03:53:03,15.08848277,0.0001557,53.2195,344.4894,104.974,255.1425,0.00013736,1.899e-05,0.0,0 STARLINK-4009,1 52624U 22052AC  24061.16184297  .00001899  00000-0  13736-3 0  9991,2 52624  53.2195 344.4894 0001557 104.9740 255.1425 15.08848277 99872,6917.855,95.437,540.797,538.643,0.0
52624.0,STARLINK-4009,PAYLOAD,2024-03-01 11:49:58,15.08848659,0.0001471,53.2193,342.9988,90.8972,269.2188,4.4406e-05,4.19e-06,0.0,0 STARLINK-4009,1 52624U 22052AC  24061.49304323  .00000419  00000-0  44406-4 0  9997,2 52624  53.2193 342.9988 0001471  90.8972 269.2188 15.08848659 99542,6917.854,95.437,540.737,538.701,0.0
52624.0,STARLINK-4009,PAYLOAD,2024-03-02 02:08:27,15.08847208,0.0001731,53.2189,340.3227,113.3984,246.719,3.9538e-05,3.41e-06,0.0,0 STARLINK-4009,1 52624U 22052AC  24062.08920426  .00000341  00000-0  39538-4 0  9995,2 52624  53.2189 340.3227 0001731 113.3984 246.7190 15.08847208100015,6917.858,95.437,540.921,538.526,0.0
52624.0,STARLINK-4009,PAYLOAD,2024-03-03 01:59:14,15.08847763,0.0001411,53.2182,335.8628,91.1536,268.9618,-2.7043e-06,-3.31e-06,0.0,0 STARLINK-4009,1 52624U 22052AC  24063.08280628 -.00000331  00000-0 -27043-5 0  9999,2 52624  53.2182 335.8628 0001411  91.1536 268.9618 15.08847763100166,6917.857,95.437,540.698,538.746,0.0
52624.0,STARLINK-4009,PAYLOAD,2024-03-03 17:53:06,15.08838266,0.0001482,53.2183,332.8916,80.0217,280.0942,7.3956e-05,8.89e-06,0.0,0 STARLINK-4009,1 52624U 22052AC  24063.74521004  .00000889  00000-0  73956-4 0  9997,2 52624  53.2183 332.8916 0001482  80.0217 280.0942 15.08838266100269,6917.886,95.438,540.776,538.725,0.0
52624.0,STARLINK-4009,PAYLOAD,2024-03-04 03:25:23,15.08863293,0.0001604,53.2194,331.0993,102.9923,257.1249,0.00015967,2.256e-05,0.0,0 STARLINK-4009,1 52624U 22052AC  24064.14262922  .00002256  00000-0  15967-3 0  9990,2 52624  53.2194 331.0993 0001604 102.9923 257.1249 15.08863293100321,6917.809,95.436,540.784,538.565,0.0
52624.0,STARLINK-4009,PAYLOAD,2024-03-04 11:22:19,15.08855871,0.0001417,53.218,329.6119,95.5826,264.5328,6.6363e-05,7.69e-06,0.0,0 STARLINK-4009,1 52624U 22052AC  24064.47383190  .00000769  00000-0  66363-4 0  9991,2 52624  53.2180 329.6119 0001417  95.5826 264.5328 15.08855871100378,6917.832,95.437,540.677,538.717,0.0
52624.0,STARLINK-4009,PAYLOAD,2024-03-04 22:30:01,15.08854158,0.0001628,53.2185,327.5278,119.0086,241.1069,3.1041e-05,2.06e-06,0.0,0 STARLINK-4009,1 52624U 22052AC  24064.93751305  .00000206  00000-0  31041-4 0  9990,2 52624  53.2185 327.5278 0001628 119.0086 241.1069 15.08854158100066,6917.837,95.437,540.828,538.576,0.0
52624.0,STARLINK-4009,PAYLOAD,2024-03-05 03:16:09,15.08858028,0.0001366,53.2173,326.6436,97.0156,263.0991,0.00017459,2.493e-05,0.0,0 STARLINK-4009,1 52624U 22052AC  24065.13622621  .00002493  00000-0  17459-3 0  9997,2 52624  53.2173 326.6436 0001366  97.0156 263.0991 15.08858028100091,6917.825,95.436,540.635,538.745,0.0
52624.0,STARLINK-4009,PAYLOAD,2024-03-05 20:45:27,15.08826251,0.0001415,53.2172,323.3737,100.423,259.6922,-0.0001055,-1.966e-05,0.0,0 STARLINK-4009,1 52624U 22052AC  24065.86489742 -.00001966  00000-0 -10550-3 0  9993,2 52624  53.2172 323.3737 0001415 100.4230 259.6922 15.08826251100587,6917.922,95.438,540.766,538.809,0.0
52624.0,STARLINK-4009,PAYLOAD,2024-03-06 03:06:59,15.08834861,0.0001532,53.2184,322.18,118.1716,241.9431,-0.00014775,-2.638e-05,0.0,0 STARLINK-4009,1 52624U 22052AC  24066.12985316 -.00002638  00000-0 -14775-3 0  9991,2 52624  53.2184 322.1800 0001532 118.1716 241.9431 15.08834861100623,6917.896,95.438,540.821,538.701,0.0
52624.0,STARLINK-4009,PAYLOAD,2024-03-06 23:46:59,15.08836974,0.0001062,53.2167,318.3178,100.0906,260.0206,4.1386e-05,3.71e-06,0.0,0 STARLINK-4009,1 52624U 22052AC  24066.99097159  .00000371  00000-0  41386-4 0  9994,2 52624  53.2167 318.3178 0001062 100.0906 260.0206 15.08836974100751,6917.89,95.438,540.489,539.02,0.0
52624.0,STARLINK-4009,PAYLOAD,2024-03-07 09:19:18,15.08844774,0.000123,53.217,316.5334,97.9232,262.19,5.2765e-06,-2.04e-06,0.0,0 STARLINK-4009,1 52624U 22052AC  24067.38840793 -.00000204  00000-0  52765-5 0  9998,2 52624  53.2170 316.5334 0001230  97.9232 262.1900 15.08844774100438,6917.866,95.437,540.582,538.88,0.0
52624.0,STARLINK-4009,PAYLOAD,2024-03-08 09:10:05,15.08841296,0.0001322,53.2178,312.0722,102.1375,257.9766,0.00021707,3.169e-05,0.0,0 STARLINK-4009,1 52624U 22052AC  24068.38201362  .00003169  00000-0  21707-3 0  9994,2 52624  53.2178 312.0722 0001322 102.1375 257.9766 15.08841296100963,6917.876,95.437,540.656,538.827,0.0
52624.0,STARLINK-4009,PAYLOAD,2024-03-08 15:31:38,15.08832644,0.0001424,53.2162,310.8846,109.2322,250.8824,7.5685e-05,9.17e-06,0.0,0 STARLINK-4009,1 52624U 22052AC  24068.64697852  .00000917  00000-0  75685-4 0  9999,2 52624  53.2162 310.8846 0001424 109.2322 250.8824 15.08832644101002,6917.903,95.438,540.753,538.783,0.0
52624.0,STARLINK-4009,PAYLOAD,2024-03-09 01:03:57,15.08834064,0.0001456,53.2175,309.1018,99.2139,260.9018,-2.5478e-05,-6.93e-06,0.0,0 STARLINK-4009,1 52624U 22052AC  24069.04442044 -.00000693  00000-0 -25478-4 0  9993,2 52624  53.2175 309.1018 0001456  99.2139 260.9018 15.08834064100685,6917.899,95.438,540.771,538.756,0.0
52624.0,STARLINK-4009,PAYLOAD,2024-03-09 21:43:58,15.08845731,0.0001165,53.2171,305.2349,102.9294,257.1828,0.00015967,2.255e-05,0.0,0 STARLINK-4009,1 52624U 22052AC  24069.90553343  .00002255  00000-0  15967-3 0  9998,2 52624  53.2171 305.2349 0001165 102.9294 257.1828 15.08845731100811,6917.863,95.437,540.534,538.922,0.0
52624.0,STARLINK-4009,PAYLOAD,2024-03-10 08:51:39,15.0884544,9.71e-05,53.2131,303.1526,113.2659,246.8435,0.00020629,2.997e-05,0.0,0 STARLINK-4009,1 52624U 22052AC  24070.36921240  .00002997  00000-0  20629-3 0  9999,2 52624  53.2131 303.1526 0000971 113.2659 246.8435 15.08845440100888,6917.864,95.437,540.4,539.057,0.0
52624.0,STARLINK-4009,PAYLOAD,2024-03-10 21:34:45,15.08837377,0.0001292,53.2131,300.7716,100.0138,260.1,0.00011866,1.601e-05,0.0,0 STARLINK-4009,1 52624U 22052AC  24070.89913765  .00001601  00000-0  11866-3 0  9994,2 52624  53.2131 300.7716 0001292 100.0138 260.1000 15.08837377101344,6917.888,95.438,540.647,538.86,0.0
52624.0,STARLINK-4009,PAYLOAD,2024-03-11 00:45:32,15.08817007,0.000128,53.2163,300.176,104.0966,256.0168,0.0004309,6.572e-05,0.0,0 STARLINK-4009,1 52624U 22052AC  24071.03162624  .00006572  00000-0  43090-3 0  9997,2 52624  53.2163 300.1760 0001280 104.0966 256.0168 15.08817007101361,6917.951,95.439,540.701,538.93,0.0
52624.0,STARLINK-4009,PAYLOAD,2024-03-11 08:42:27,15.08841298,0.000104,53.2162,298.6891,111.7115,248.3988,6.0562e-05,6.76e-06,0.0,0 STARLINK-4009,1 52624U 22052AC  24071.36281546  .00000676  00000-0  60562-4 0  9991,2 52624  53.2162 298.6891 0001040 111.7115 248.3988 15.08841298101410,6917.876,95.437,540.461,539.022,0.0
52624.0,STARLINK-4009,PAYLOAD,2024-03-12 14:54:46,15.08839346,0.0001284,53.216,293.0389,104.2633,255.8502,8.8515e-05,1.121e-05,0.0,0 STARLINK-4009,1 52624U 22052AC  24072.62137607  .00001121  00000-0  88515-4 0  9993,2 52624  53.2160 293.0389 0001284 104.2633 255.8502 15.08839346101608,6917.882,95.438,540.636,538.859,0.0
52624.0,STARLINK-4009,PAYLOAD,2024-03-13 00:27:05,15.08840762,0.0001372,53.2162,291.2544,107.5094,252.6048,9.5186e-05,1.227e-05,0.0,0 STARLINK-4009,1 52624U 22052AC  24073.01881502  .00001227  00000-0  95186-4 0  9996,2 52624  53.2162 291.2544 0001372 107.5094 252.6048 15.08840762101286,6917.878,95.438,540.692,538.794,0.0
52624.0,STARLINK-4009,PAYLOAD,2024-03-13 21:07:04,15.08872931,7.82e-05,53.2178,287.3935,289.9962,70.0946,0.00032265,4.856e-05,0.0,0 STARLINK-4009,1 52624U 22052AC  24073.87991129  .00004856  00000-0  32265-3 0  9996,2 52624  53.2178 287.3935 0000782 289.9962  70.0946 15.08872931101794,6917.78,95.435,540.186,539.104,0.0
52624.0,STARLINK-4009,PAYLOAD,2024-03-14 06:39:25,15.08840203,0.0001109,53.2143,285.6061,89.2707,270.8412,3.9851e-05,3.46e-06,0.0,0 STARLINK-4009,1 52624U 22052AC  24074.27737845  .00000346  00000-0  39851-4 0  9993,2 52624  53.2143 285.6061 0001109  89.2707 270.8412 15.08840203101479,6917.88,95.438,540.512,538.978,0.0
52624.0,STARLINK-4009,PAYLOAD,2024-03-14 13:00:58,15.08836396,0.0001449,53.2138,284.4153,89.6365,270.4793,6.0073e-05,6.68e-06,0.0,0 STARLINK-4009,1 52624U 22052AC  24074.54234188  .00000668  00000-0  60073-4 0  9992,2 52624  53.2138 284.4153 0001449  89.6365 270.4793 15.08836396101895,6917.891,95.438,540.759,538.754,0.0
52624.0,STARLINK-4009,PAYLOAD,2024-03-14 20:57:53,15.08840211,0.0001346,53.2157,282.9297,90.422,269.6927,6.0776e-05,6.79e-06,0.0,0 STARLINK-4009,1 52624U 22052AC  24074.87353947  .00000679  00000-0  60776-4 0  9995,2 52624  53.2157 282.9297 0001346  90.4220 269.6927 15.08840211101568,6917.88,95.438,540.676,538.814,0.0
52624.0,STARLINK-4009,PAYLOAD,2024-03-15 16:02:31,15.08837859,0.0001289,53.2157,279.362,91.8975,268.2165,7.8965e-05,9.69e-06,0.0,0 STARLINK-4009,1 52624U 22052AC  24075.66842189  .00000969  00000-0  78965-4 0  9995,2 52624  53.2157 279.3620 0001289  91.8975 268.2165 15.08837859102065,6917.887,95.438,540.644,538.86,0.0
52624.0,STARLINK-4009,PAYLOAD,2024-03-15 22:24:04,15.08839994,0.0001284,53.2154,278.1724,91.1756,268.9383,8.9357e-05,1.135e-05,0.0,0 STARLINK-4009,1 52624U 22052AC  24075.93338057  .00001135  00000-0  89357-4 0  9992,2 52624  53.2154 278.1724 0001284  91.1756 268.9383 15.08839994101722,6917.88,95.438,540.634,538.857,0.0
52624.0,STARLINK-4009,PAYLOAD,2024-03-16 12:42:32,15.08836519,0.0001292,53.2152,275.4965,85.5324,274.5816,3.5174e-05,2.72e-06,0.0,0 STARLINK-4009,1 52624U 22052AC  24076.52954561  .00000272  00000-0  35174-4 0  9991,2 52624  53.2152 275.4965 0001292  85.5324 274.5816 15.08836519101818,6917.891,95.438,540.65,538.862,0.0
